OBJECT_NAME,OBJECT_ID,EPOCH,MEAN_MOTION,ECCENTRICITY,INCLINATION,RA_OF_ASC_NODE,ARG_OF_PERICENTER,MEAN_ANOMALY,EPHEMERIS_TYPE,CLASSIFICATION_TYPE,NORAD_CAT_ID,ELEMENT_SET_NO,REV_AT_EPOCH,BSTAR,MEAN_MOTION_DOT,MEAN_MOTION_DDOT
SL-14 R/B,1990-010B,2026-06-07T07:42:29.113920,14.83640227,.00199877,82.5018,183.2105,9.1267,351.0307,0,U,20466,999,94177,.45240131E-4,.398E-5,0
SL-14 R/B,1990-018B,2026-06-07T05:20:39.031008,14.82209894,.00168414,82.5202,139.4212,152.4367,207.7744,0,U,20511,999,93584,.53659701E-4,.452E-5,0
HST,1990-037B,2026-06-07T07:09:32.202432,15.30642118,.00019379,28.4712,148.1547,44.7656,315.3096,0,U,20580,999,78705,.18953605E-3,.601E-4,0
SL-16 R/B,1990-046B,2026-06-06T15:03:13.161024,14.15020420,.00141408,70.9979,111.1256,177.7915,182.3272,0,U,20625,999,86097,.15697479E-3,.257E-5,0
COSMOS 2084,1990-055A,2026-06-06T08:55:32.211840,15.06072304,.00055715,62.7909,33.0039,259.1304,100.9169,0,U,20663,999,94967,.1812536E-3,.246E-4,0
SL-6 R/B(2),1990-055D,2026-06-07T03:25:21.996480,15.03969781,.00390441,62.7841,309.5560,3.7613,356.3772,0,U,20666,999,95164,.15379612E-3,.1961E-4,0
SL-8 R/B,1990-078B,2026-06-06T12:46:55.679232,14.91925991,.0352993,82.9017,171.2678,74.3044,289.6817,0,U,20775,999,82253,.53935E-3,.19142E-3,0
SL-8 R/B,1991-006B,2026-06-07T02:26:56.142816,13.77505131,.00232252,82.9418,103.5359,141.5288,229.3870,0,U,21088,999,77638,.34393232E-4,.5E-6,0
OKEAN-3,1991-039A,2026-06-06T15:15:32.456448,15.05281228,.0014692,82.5166,250.6130,34.1296,326.0872,0,U,21397,999,87841,.16620758E-3,.2409E-4,0
COSMOS 2151,1991-042A,2026-06-07T06:09:08.820576,15.00411063,.00136972,82.4962,357.2657,113.7686,246.4976,0,U,21422,999,87662,.12357626E-3,.1583E-4,0
SL-14 R/B,1991-042B,2026-06-07T05:27:03.197376,14.81896277,.00157681,82.4921,136.2360,310.6410,49.3432,0,U,21423,999,86633,.54487423E-4,.455E-5,0
ERS-1,1991-050A,2026-06-07T07:04:24.833568,14.39510978,.00308133,98.7800,178.7509,297.4986,62.3070,0,U,21574,999,82862,.10569041E-3,.285E-5,0
ARIANE 40 R/B,1991-050F,2026-06-06T15:32:32.909568,14.42950877,.00037712,98.1879,206.4744,144.6128,215.5314,0,U,21610,999,83182,.10349542E-3,.305E-5,0
INTERCOSMOS 25,1991-086A,2026-06-06T13:08:18.493728,12.12183565,.1484428,82.6057,256.2481,285.3665,58.8577,0,U,21819,999,50745,.15383E-3,.773E-5,0
SL-8 R/B,1992-008B,2026-06-06T15:59:18.665664,13.75974083,.00333148,82.9269,201.6098,245.0382,233.2779,0,U,21876,999,72165,.39874972E-4,.54E-6,0
SL-8 R/B,1992-020B,2026-06-07T01:53:12.272064,13.75547903,.00302751,82.9304,87.3653,49.9613,320.8465,0,U,21938,999,71342,.52543364E-4,.66E-6,0
USA 81,1992-023A,2026-06-07T01:49:11.553024,14.32395441,.00027355,85.0077,79.8428,93.8531,266.2974,0,U,21949,999,10758,.6131637E-4,.186E-5,0
COSMOS 2219,1992-076A,2026-06-06T19:00:44.015904,14.14095586,.00161205,71.0578,191.8031,61.1295,299.1443,0,U,22219,999,73097,-.17357216E-4,-.8E-6,0
SL-16 R/B,1992-076B,2026-06-07T07:25:09.228576,14.16872334,.00144255,71.0008,359.5909,311.5990,221.2919,0,U,22220,999,73452,-.73457785E-4,-.195E-5,0
COSMOS 2221,1992-080A,2026-06-06T20:12:32.065920,14.96507463,.00126408,82.5036,193.6760,250.4312,109.5545,0,U,22236,999,79412,.12771451E-3,.1478E-4,0
SL-16 R/B,1992-093B,2026-06-06T18:48:03.256992,14.15464998,.00045258,71.0202,177.2320,202.6785,157.4139,0,U,22285,999,72576,-.9434274E-5,-.66E-6,0
COSMOS 2228,1992-094A,2026-06-07T06:22:32.906496,14.97551784,.00178815,82.5170,151.5463,6.3935,353.7512,0,U,22286,999,78946,.23039019E-3,.2722E-4,0
SL-16 R/B,1993-016B,2026-06-06T14:54:12.576096,14.15308578,.00109011,71.0080,28.4009,198.9571,161.1148,0,U,22566,999,71475,.28809422E-4,.8E-7,0
COSMOS 2242,1993-024A,2026-06-07T00:28:52.510080,14.96873384,.00163623,82.5180,181.2700,11.0731,349.0848,0,U,22626,999,79375,.14650744E-3,.171E-4,0
SL-16 R/B,1993-059B,2026-06-07T07:49:55.575552,14.17243986,.00149727,70.9883,182.0988,71.2369,289.0378,0,U,22803,999,69223,.9983041E-4,.154E-5,0
ARIANE 40 R/B,1993-061H,2026-06-06T22:34:31.558656,14.32903576,.00111094,98.4821,225.0103,26.4411,333.7338,0,U,22830,999,70688,.93062375E-4,.211E-5,0
COSMOS 2278,1994-023A,2026-06-07T06:36:00.092448,14.14392155,.00106132,71.0541,347.6650,254.4139,105.5813,0,U,23087,999,65747,.23061121E-3,.394E-5,0
SL-16 R/B,1994-023B,2026-06-06T15:28:43.506336,14.15018806,.00034343,70.9996,244.0707,198.1009,161.9992,0,U,23088,999,65867,.87263505E-4,.121E-5,0
SL-16 R/B,1994-074B,2026-06-07T07:57:02.406240,14.79494222,.00052063,97.6995,185.4625,295.1415,75.8545,0,U,23343,999,70050,.71070511E-4,.482E-5,0
SL-16 R/B,1994-077B,2026-06-07T07:09:46.558656,14.15573834,.00026168,70.9806,163.9669,333.4307,26.6681,0,U,23405,999,62891,-.12594921E-3,-.294E-5,0
